0 BREEZE-M DEB
1 38585U 08011AG  13279.12400171  .00001973  00000-0  92924-3 0  1718
2 38585 049.0189 128.4166 6571893 297.8239 226.9307 03.18025499 28751
0 BREEZE-M DEB
1 38585U 08011AG  13280.14925534  .00001828  00000-0  86877-3 0  1727
2 38585 049.0202 128.0005 6571694 298.1855 320.7373 03.18029816 28788
0 BREEZE-M DEB
1 38585U 08011AG  13285.54480597  .00002347  00000-0  11478-2 0  1733
2 38585 049.0278 125.8118 6570564 300.0862 018.3880 03.18056239 28958
0 BREEZE-M DEB
1 38585U 08011AG  13286.79701712  .00002716  00000-0  13426-2 0  1742
2 38585 049.0294 125.3037 6570367 300.5291 012.2015 03.18062157 28996
0 BREEZE-M DEB
1 38585U 08011AG  13291.51696051  .00002883  00000-0  15316-2 0  1753
2 38585 049.0359 123.3903 6569361 302.1918 016.8831 03.18090490 29149
0 BREEZE-M DEB
1 38585U 08011AG  13292.77930257  .00002743  00000-0  14895-2 0  1768
2 38585 049.0376 122.8815 6569128 302.6374 022.4326 03.18094889 29188
